{
"type": "FeatureCollection",
"name": "J2",
"crs": { "type": "name", "properties": { "name": "urn:ogc:def:crs:OGC:1.3:CRS84" } },
"features": [
{ "type": "Feature", "properties": { "지번": "1149-7답", "pnu": "4574032028111490007", "도로명": "전라북도 장수군 번암면 장수로 479", "용도지역": null, "지형높이": null, "공부지목": "02-답", "현황지목": "02-답", "실면적": 180, "이용상황": "zzzz", "지형형상": "qqqq", "도로접면": "ffff", "기준년도": 2026, "기준가격": 197500, "개별공시": 197500, "표준공시": 197500, "재산구분": "03-일반재산", "회계구분": "100-일반회계", "재산관리관": "47500850000-행정복지국 재무과", "분업관리관": "47500850000-행정복지국 재무과", "위임관리관": "47500850000-행정복지국 재무과", "재산번호": 110085, "공유지분": 1, "공유인수": 1, "변동일자": "2026-07-16", "변동원인": null, "취득일자": "2026-07-16", "취득부서": "도시과", "취득방법": "취득", "취득가액": 10000, "취득사유": "사유", "취득면적": 100, "국토계획": "ㅇㅇㅇㅇ", "기타법령": "ㅇㅇㅇㅇ", "시행령": "ㅇㅇㅇ", "도시계획": "ㅇㅇㅇ", "개발사업": "ㅇㅇ", "대부여부": "N", "피대부자": 1, "무단여부": null, "무단점유자": null, "적합여부": null, "사용자명": null, "대부용도": null, "대부면적": 100, "사용시작": "2026-07-16", "사용종료": "2026-07-16", "대부료": 10000, "시설물": "비닐", "점유현황": null, "점유자명": null, "무단용도": null, "무단면적": null, "점유시작": null, "점유종료": null, "변상금": null, "무단시설": null, "위치": null, "주변현황": null, "활용방안": null, "특기사항": null, "종합의견_1": null }, "geometry": { "type": "Polygon", "coordinates": [ [ [ 127.543720161365144, 35.531819367500248 ], [ 127.543735374785584, 35.531802634335186 ], [ 127.543809946478675, 35.531670440987163 ], [ 127.543762118718348, 35.531646240219182 ], [ 127.54374483743743, 35.531637494334184 ], [ 127.543724921775507, 35.531619035421222 ], [ 127.543624110216385, 35.531781007973095 ], [ 127.543720161365144, 35.531819367500248 ] ] ] } },
{ "type": "Feature", "properties": { "지번": "1008답", "pnu": "4574031022110080000", "도로명": null, "용도지역": null, "지형높이": null, "공부지목": "02-답", "현황지목": "02-답", "실면적": 1548, "이용상황": "zzzz", "지형형상": "qqqq", "도로접면": "ffff", "기준년도": 2026, "기준가격": 7460, "개별공시": 7460, "표준공시": 7460, "재산구분": "03-일반재산", "회계구분": "100-일반회계", "재산관리관": "47500850000-행정복지국 재무과", "분업관리관": "47500850000-행정복지국 재무과", "위임관리관": "47500850000-행정복지국 재무과", "재산번호": 110881, "공유지분": 1, "공유인수": 1, "변동일자": "2026-07-16", "변동원인": null, "취득일자": "2026-07-16", "취득부서": "도시과", "취득방법": "취득", "취득가액": 10000, "취득사유": "사유", "취득면적": 100, "국토계획": "ㅇㅇㅇㅇ", "기타법령": "ㅇㅇㅇㅇ", "시행령": "ㅇㅇㅇ", "도시계획": "ㅇㅇㅇ", "개발사업": "ㅇㅇ", "대부여부": "Y", "피대부자": 1, "무단여부": null, "무단점유자": null, "적합여부": null, "사용자명": "철수", "대부용도": "전", "대부면적": 100, "사용시작": "2026-07-16", "사용종료": "2026-07-16", "대부료": 10000, "시설물": "비닐", "점유현황": null, "점유자명": null, "무단용도": null, "무단면적": null, "점유시작": null, "점유종료": null, "변상금": null, "무단시설": null, "위치": null, "주변현황": null, "활용방안": null, "특기사항": null, "종합의견_1": null }, "geometry": { "type": "Polygon", "coordinates": [ [ [ 127.426424064416295, 35.570818828023462 ], [ 127.426473582541803, 35.570795580577773 ], [ 127.426491070474754, 35.570848424330592 ], [ 127.426639264155426, 35.570940103191177 ], [ 127.426525776813065, 35.570109428816359 ], [ 127.426372665846998, 35.570088968621491 ], [ 127.426322383015446, 35.570092660843834 ], [ 127.426424064416295, 35.570818828023462 ] ] ] } },
{ "type": "Feature", "properties": { "지번": "1804-6전", "pnu": "4574025030118040006", "도로명": null, "용도지역": null, "지형높이": null, "공부지목": "01-전", "현황지목": "01-전", "실면적": 982, "이용상황": "zzzz", "지형형상": "qqqq", "도로접면": "ffff", "기준년도": 2026, "기준가격": 3490, "개별공시": 3490, "표준공시": 3490, "재산구분": "03-일반재산", "회계구분": "100-일반회계", "재산관리관": "47500850000-행정복지국 재무과", "분업관리관": "47500850000-행정복지국 재무과", "위임관리관": "47500850000-행정복지국 재무과", "재산번호": 112840, "공유지분": 1, "공유인수": 1, "변동일자": "2026-07-16", "변동원인": null, "취득일자": "2026-07-16", "취득부서": "도시과", "취득방법": "취득", "취득가액": 10000, "취득사유": "사유", "취득면적": 100, "국토계획": "ㅇㅇㅇㅇ", "기타법령": "ㅇㅇㅇㅇ", "시행령": "ㅇㅇㅇ", "도시계획": "ㅇㅇㅇ", "개발사업": "ㅇㅇ", "대부여부": "Y", "피대부자": 1, "무단여부": null, "무단점유자": null, "적합여부": null, "사용자명": "철수", "대부용도": "전", "대부면적": 100, "사용시작": "2026-07-16", "사용종료": "2026-07-16", "대부료": 10000, "시설물": "비닐", "점유현황": null, "점유자명": null, "무단용도": null, "무단면적": null, "점유시작": null, "점유종료": null, "변상금": null, "무단시설": null, "위치": null, "주변현황": null, "활용방안": null, "특기사항": null, "종합의견_1": null }, "geometry": { "type": "Polygon", "coordinates": [ [ [ 127.478961872911924, 35.636498764174142 ], [ 127.478834437971187, 35.636807522501812 ], [ 127.479143699087416, 35.636811055294977 ], [ 127.479221522758536, 35.636768431924516 ], [ 127.479237117000693, 35.636761898939824 ], [ 127.479310991346736, 35.63661038139211 ], [ 127.478961872911924, 35.636498764174142 ] ] ] } },
{ "type": "Feature", "properties": { "지번": "133-10대", "pnu": "4574031034101330010", "도로명": "전라북도 장수군 산서면 보산로 1864-16", "용도지역": null, "지형높이": null, "공부지목": "08-대", "현황지목": "08-대", "실면적": 24, "이용상황": "zzzz", "지형형상": "qqqq", "도로접면": "ffff", "기준년도": 2026, "기준가격": 159900, "개별공시": 159900, "표준공시": 159900, "재산구분": "03-일반재산", "회계구분": "100-일반회계", "재산관리관": "47500850000-행정복지국 재무과", "분업관리관": "47500850000-행정복지국 재무과", "위임관리관": "47500850000-행정복지국 재무과", "재산번호": 110611, "공유지분": 1, "공유인수": 1, "변동일자": "2026-07-16", "변동원인": null, "취득일자": "2026-07-16", "취득부서": "도시과", "취득방법": "취득", "취득가액": 10000, "취득사유": "사유", "취득면적": 100, "국토계획": "ㅇㅇㅇㅇ", "기타법령": "ㅇㅇㅇㅇ", "시행령": "ㅇㅇㅇ", "도시계획": "ㅇㅇㅇ", "개발사업": "ㅇㅇ", "대부여부": "N", "피대부자": 0, "무단여부": null, "무단점유자": null, "적합여부": null, "사용자명": null, "대부용도": null, "대부면적": 100, "사용시작": "2026-07-16", "사용종료": "2026-07-16", "대부료": 10000, "시설물": "비닐", "점유현황": null, "점유자명": null, "무단용도": null, "무단면적": null, "점유시작": null, "점유종료": null, "변상금": null, "무단시설": null, "위치": null, "주변현황": null, "활용방안": null, "특기사항": null, "종합의견_1": null }, "geometry": { "type": "Polygon", "coordinates": [ [ [ 127.396387847532793, 35.58473084294863 ], [ 127.396418193063454, 35.584727192464591 ], [ 127.396400751230146, 35.584662375219146 ], [ 127.396357871136019, 35.584663606259689 ], [ 127.396387847532793, 35.58473084294863 ] ] ] } },
{ "type": "Feature", "properties": { "지번": "133-11답", "pnu": "4574031034101330011", "도로명": "전라북도 장수군 산서면 보산로 1864-16", "용도지역": null, "지형높이": null, "공부지목": "02-답", "현황지목": "02-답", "실면적": 32, "이용상황": "zzzz", "지형형상": "qqqq", "도로접면": "ffff", "기준년도": 2026, "기준가격": 159900, "개별공시": 159900, "표준공시": 159900, "재산구분": "03-일반재산", "회계구분": "100-일반회계", "재산관리관": "47500850000-행정복지국 재무과", "분업관리관": "47500850000-행정복지국 재무과", "위임관리관": "47500850000-행정복지국 재무과", "재산번호": 110592, "공유지분": 1, "공유인수": 1, "변동일자": "2026-07-16", "변동원인": null, "취득일자": "2026-07-16", "취득부서": "도시과", "취득방법": "취득", "취득가액": 10000, "취득사유": "사유", "취득면적": 100, "국토계획": "ㅇㅇㅇㅇ", "기타법령": "ㅇㅇㅇㅇ", "시행령": "ㅇㅇㅇ", "도시계획": "ㅇㅇㅇ", "개발사업": "ㅇㅇ", "대부여부": "N", "피대부자": 0, "무단여부": null, "무단점유자": null, "적합여부": null, "사용자명": null, "대부용도": null, "대부면적": 100, "사용시작": "2026-07-16", "사용종료": "2026-07-16", "대부료": 10000, "시설물": "비닐", "점유현황": null, "점유자명": null, "무단용도": null, "무단면적": null, "점유시작": null, "점유종료": null, "변상금": null, "무단시설": null, "위치": null, "주변현황": null, "활용방안": null, "특기사항": null, "종합의견_1": null }, "geometry": { "type": "Polygon", "coordinates": [ [ [ 127.396400751230146, 35.584662375219146 ], [ 127.396394072905721, 35.584601046724238 ], [ 127.396327468225778, 35.584608367044645 ], [ 127.396357871136019, 35.584663606259689 ], [ 127.396400751230146, 35.584662375219146 ] ] ] } },
{ "type": "Feature", "properties": { "지번": "91-2전", "pnu": "4574032021100910002", "도로명": null, "용도지역": null, "지형높이": null, "공부지목": "01-전", "현황지목": "01-전", "실면적": 79, "이용상황": "zzzz", "지형형상": "qqqq", "도로접면": "ffff", "기준년도": 2026, "기준가격": 2460, "개별공시": 2460, "표준공시": 2460, "재산구분": "03-일반재산", "회계구분": "100-일반회계", "재산관리관": "47500850000-행정복지국 재무과", "분업관리관": "47500850000-행정복지국 재무과", "위임관리관": "47500850000-행정복지국 재무과", "재산번호": 109869, "공유지분": 1, "공유인수": 1, "변동일자": "2026-07-16", "변동원인": null, "취득일자": "2026-07-16", "취득부서": "도시과", "취득방법": "취득", "취득가액": 10000, "취득사유": "사유", "취득면적": 100, "국토계획": "ㅇㅇㅇㅇ", "기타법령": "ㅇㅇㅇㅇ", "시행령": "ㅇㅇㅇ", "도시계획": "ㅇㅇㅇ", "개발사업": "ㅇㅇ", "대부여부": "N", "피대부자": 0, "무단여부": null, "무단점유자": null, "적합여부": null, "사용자명": null, "대부용도": null, "대부면적": 100, "사용시작": "2026-07-16", "사용종료": "2026-07-16", "대부료": 10000, "시설물": "비닐", "점유현황": null, "점유자명": null, "무단용도": null, "무단면적": null, "점유시작": null, "점유종료": null, "변상금": null, "무단시설": null, "위치": null, "주변현황": null, "활용방안": null, "특기사항": null, "종합의견_1": null }, "geometry": { "type": "Polygon", "coordinates": [ [ [ 127.498784402102729, 35.582993580301249 ], [ 127.498685940743258, 35.582966263124142 ], [ 127.498561068610357, 35.582958909979638 ], [ 127.498549895281784, 35.58295047501398 ], [ 127.498513931137111, 35.582940285639182 ], [ 127.498511237625294, 35.582968614958055 ], [ 127.498679907558625, 35.583004042621965 ], [ 127.498766388378769, 35.583017277164316 ], [ 127.498784402102729, 35.582993580301249 ] ] ] } },
{ "type": "Feature", "properties": { "지번": "741-1 잡", "pnu": "4574032022107410001", "도로명": null, "용도지역": null, "지형높이": null, "공부지목": "28-잡종지", "현황지목": "28-잡종지", "실면적": 7, "이용상황": "zzzz", "지형형상": "qqqq", "도로접면": "ffff", "기준년도": 2026, "기준가격": 1650, "개별공시": 1650, "표준공시": 1650, "재산구분": "03-일반재산", "회계구분": "100-일반회계", "재산관리관": "47500850000-행정복지국 재무과", "분업관리관": "47500850000-행정복지국 재무과", "위임관리관": "47500850000-행정복지국 재무과", "재산번호": 109939, "공유지분": 1, "공유인수": 1, "변동일자": "2026-07-16", "변동원인": null, "취득일자": "2026-07-16", "취득부서": "도시과", "취득방법": "취득", "취득가액": 10000, "취득사유": "사유", "취득면적": 100, "국토계획": "ㅇㅇㅇㅇ", "기타법령": "ㅇㅇㅇㅇ", "시행령": "ㅇㅇㅇ", "도시계획": "ㅇㅇㅇ", "개발사업": "ㅇㅇ", "대부여부": "N", "피대부자": 0, "무단여부": null, "무단점유자": null, "적합여부": null, "사용자명": null, "대부용도": null, "대부면적": 100, "사용시작": "2026-07-16", "사용종료": "2026-07-16", "대부료": 10000, "시설물": "비닐", "점유현황": null, "점유자명": null, "무단용도": null, "무단면적": null, "점유시작": null, "점유종료": null, "변상금": null, "무단시설": null, "위치": null, "주변현황": null, "활용방안": null, "특기사항": null, "종합의견_1": null }, "geometry": { "type": "Polygon", "coordinates": [ [ [ 127.476817642504301, 35.555755837868482 ], [ 127.476832525913423, 35.55578844175529 ], [ 127.476859569183731, 35.555743541280719 ], [ 127.476817642504301, 35.555755837868482 ] ] ] } },
{ "type": "Feature", "properties": { "지번": "1003-4잡", "pnu": "4574032028110030004", "도로명": "전라북도 장수군 번암면 지지로 11-10", "용도지역": null, "지형높이": null, "공부지목": "28-잡종지", "현황지목": "28-잡종지", "실면적": 35, "이용상황": "zzzz", "지형형상": "qqqq", "도로접면": "ffff", "기준년도": 2026, "기준가격": 8010, "개별공시": 8010, "표준공시": 8010, "재산구분": "03-일반재산", "회계구분": "100-일반회계", "재산관리관": "47500850000-행정복지국 재무과", "분업관리관": "47500850000-행정복지국 재무과", "위임관리관": "47500850000-행정복지국 재무과", "재산번호": 110159, "공유지분": 1, "공유인수": 1, "변동일자": "2026-07-16", "변동원인": null, "취득일자": "2026-07-16", "취득부서": "도시과", "취득방법": "취득", "취득가액": 10000, "취득사유": "사유", "취득면적": 100, "국토계획": "ㅇㅇㅇㅇ", "기타법령": "ㅇㅇㅇㅇ", "시행령": "ㅇㅇㅇ", "도시계획": "ㅇㅇㅇ", "개발사업": "ㅇㅇ", "대부여부": "N", "피대부자": 0, "무단여부": null, "무단점유자": null, "적합여부": null, "사용자명": null, "대부용도": null, "대부면적": 100, "사용시작": "2026-07-16", "사용종료": "2026-07-16", "대부료": 10000, "시설물": "비닐", "점유현황": null, "점유자명": null, "무단용도": null, "무단면적": null, "점유시작": null, "점유종료": null, "변상금": null, "무단시설": null, "위치": null, "주변현황": null, "활용방안": null, "특기사항": null, "종합의견_1": null }, "geometry": { "type": "Polygon", "coordinates": [ [ [ 127.544462271374428, 35.534740356498588 ], [ 127.544475662620826, 35.534737871751659 ], [ 127.544397800829231, 35.534354175761521 ], [ 127.544409712943676, 35.534434922332998 ], [ 127.544462271374428, 35.534740356498588 ] ] ] } },
{ "type": "Feature", "properties": { "지번": "207-2전", "pnu": "4574032027102070002", "도로명": null, "용도지역": null, "지형높이": null, "공부지목": "01-전", "현황지목": "01-전", "실면적": 840, "이용상황": "zzzz", "지형형상": "qqqq", "도로접면": "ffff", "기준년도": 2026, "기준가격": 7270, "개별공시": 7270, "표준공시": 7270, "재산구분": "03-일반재산", "회계구분": "100-일반회계", "재산관리관": "47500850000-행정복지국 재무과", "분업관리관": "47500850000-행정복지국 재무과", "위임관리관": "47500850000-행정복지국 재무과", "재산번호": 110415, "공유지분": 1, "공유인수": 1, "변동일자": "2026-07-16", "변동원인": null, "취득일자": "2026-07-16", "취득부서": "도시과", "취득방법": "취득", "취득가액": 10000, "취득사유": "사유", "취득면적": 100, "국토계획": "ㅇㅇㅇㅇ", "기타법령": "ㅇㅇㅇㅇ", "시행령": "ㅇㅇㅇ", "도시계획": "ㅇㅇㅇ", "개발사업": "ㅇㅇ", "대부여부": "Y", "피대부자": 1, "무단여부": null, "무단점유자": null, "적합여부": null, "사용자명": "철수", "대부용도": "전", "대부면적": 100, "사용시작": "2026-07-16", "사용종료": "2026-07-16", "대부료": 10000, "시설물": "비닐", "점유현황": null, "점유자명": null, "무단용도": null, "무단면적": null, "점유시작": null, "점유종료": null, "변상금": null, "무단시설": null, "위치": null, "주변현황": null, "활용방안": null, "특기사항": null, "종합의견_1": null }, "geometry": { "type": "Polygon", "coordinates": [ [ [ 127.536234173628074, 35.536182161292793 ], [ 127.536244699132666, 35.536163160596651 ], [ 127.536215360723631, 35.536145355109817 ], [ 127.536154785739399, 35.536161008612808 ], [ 127.536105217641534, 35.536183679367888 ], [ 127.536082946395297, 35.536177378969313 ], [ 127.536038315645683, 35.536193024825565 ], [ 127.535985208899348, 35.536229131351057 ], [ 127.535940697927614, 35.536216296031675 ], [ 127.53588604027297, 35.536223063544156 ], [ 127.535801457825983, 35.536246637389915 ], [ 127.535757694494819, 35.536266731647842 ], [ 127.535519014846514, 35.536368282070484 ], [ 127.535442685530114, 35.536387700246259 ], [ 127.535378458837556, 35.536401449790645 ], [ 127.535361501386035, 35.536371701335533 ], [ 127.535470066583244, 35.536331455991586 ], [ 127.535528684593871, 35.536319957409148 ], [ 127.53557885311011, 35.536307982485518 ], [ 127.535668696940931, 35.536268018153862 ], [ 127.535721828124238, 35.536225593650514 ], [ 127.535789313555185, 35.536196138112842 ], [ 127.535849629103055, 35.536194555002979 ], [ 127.535897632643554, 35.536175379258886 ], [ 127.535960034020491, 35.536194020701423 ], [ 127.536026296118465, 35.536174646820314 ], [ 127.536078205420139, 35.536157499610098 ], [ 127.53610827283606, 35.536128966832202 ], [ 127.53612940274401, 35.536091217470492 ], [ 127.536087783498687, 35.536048879336732 ], [ 127.536063574324018, 35.536121098470062 ], [ 127.535956205483117, 35.536167071218514 ], [ 127.535845825316542, 35.536134753564738 ], [ 127.53561495053809, 35.536249248100567 ], [ 127.535554507274767, 35.536278149610183 ], [ 127.535300194267151, 35.53635179294119 ], [ 127.535258714495711, 35.53636208895459 ], [ 127.535270772567117, 35.536386307193247 ], [ 127.535268862493197, 35.536424214685447 ], [ 127.535293807585603, 35.536461291297577 ], [ 127.535331708859985, 35.536458419675967 ], [ 127.535396276796078, 35.536424606039716 ], [ 127.535504586881231, 35.536395772063386 ], [ 127.535765331339093, 35.536325912245864 ], [ 127.535925059354241, 35.53626571970586 ], [ 127.53595655035663, 35.536280568521178 ], [ 127.536123155005498, 35.536246410408197 ], [ 127.536148458653855, 35.536226136484451 ], [ 127.536142390166262, 35.536208930817146 ], [ 127.536234173628074, 35.536182161292793 ] ] ] } },
{ "type": "Feature", "properties": { "지번": "207-1전", "pnu": "4574032027102070001", "도로명": null, "용도지역": null, "지형높이": null, "공부지목": "01-전", "현황지목": "01-전", "실면적": 582, "이용상황": "zzzz", "지형형상": "qqqq", "도로접면": "ffff", "기준년도": 2026, "기준가격": 6670, "개별공시": 6670, "표준공시": 6670, "재산구분": "03-일반재산", "회계구분": "100-일반회계", "재산관리관": "47500850000-행정복지국 재무과", "분업관리관": "47500850000-행정복지국 재무과", "위임관리관": "47500850000-행정복지국 재무과", "재산번호": 110414, "공유지분": 1, "공유인수": 1, "변동일자": "2026-07-16", "변동원인": null, "취득일자": "2026-07-16", "취득부서": "도시과", "취득방법": "취득", "취득가액": 10000, "취득사유": "사유", "취득면적": 100, "국토계획": "ㅇㅇㅇㅇ", "기타법령": "ㅇㅇㅇㅇ", "시행령": "ㅇㅇㅇ", "도시계획": "ㅇㅇㅇ", "개발사업": "ㅇㅇ", "대부여부": "N", "피대부자": 0, "무단여부": null, "무단점유자": null, "적합여부": null, "사용자명": null, "대부용도": null, "대부면적": 100, "사용시작": "2026-07-16", "사용종료": "2026-07-16", "대부료": 10000, "시설물": "비닐", "점유현황": null, "점유자명": null, "무단용도": null, "무단면적": null, "점유시작": null, "점유종료": null, "변상금": null, "무단시설": null, "위치": null, "주변현황": null, "활용방안": null, "특기사항": null, "종합의견_1": null }, "geometry": { "type": "Polygon", "coordinates": [ [ [ 127.534515411878346, 35.537201561736872 ], [ 127.534438849891202, 35.53716595685723 ], [ 127.534417940852464, 35.537140569928951 ], [ 127.534355479739574, 35.537161305099801 ], [ 127.53431455658874, 35.537124127647509 ], [ 127.534264592831676, 35.537117147117719 ], [ 127.534234664875854, 35.537088546361169 ], [ 127.534203237400803, 35.537074967629515 ], [ 127.534193072504408, 35.53708022195741 ], [ 127.534091899419593, 35.537121361831709 ], [ 127.534182217894923, 35.537224655765719 ], [ 127.53423009126783, 35.537259017589435 ], [ 127.534274375208668, 35.537314178883591 ], [ 127.534274334181276, 35.537352997409897 ], [ 127.534348338872633, 35.537377050205308 ], [ 127.534437740969111, 35.537266698383483 ], [ 127.53447299344424, 35.53721672856863 ], [ 127.534515411878346, 35.537201561736872 ] ] ] } }
]
}
